{"type":"FeatureCollection","features":[{"type":"Feature","geometry":{"type":"Polygon","coordinates":[[[136.84798055795648,35.18055805391111],[136.84380000007002,35.19389333251132],[136.8377350063655,35.197462505190515],[136.83663861228217,35.20465138705191],[136.82297917035248,35.2041244409902],[136.82274027174617,35.21534361301735],[136.80851389090344,35.21750805365383],[136.80649917030053,35.213276666984655],[136.7943111154657,35.213130278939275],[136.7801269389072,35.20777361286201],[136.76232639414786,35.20528055905061],[136.76356306088667,35.1997169454807],[136.77193055824876,35.1980913867082],[136.77941722452533,35.184407225113375],[136.77999333292598,35.172293612560225],[136.78662416297482,35.17221555860118],[136.78286666686324,35.16064666720996],[136.78453944184184,35.15737750476808],[136.78665416345893,35.14992527892855],[136.80090999979677,35.148040279235545],[136.8089600005037,35.1476052789605],[136.80941277587897,35.153571386810086],[136.8026250060393,35.15418000030684],[136.8017641632856,35.16130194562834],[136.80780094705608,35.16818617135476],[136.8090836060237,35.19008999975375],[136.8139922181664,35.187318333274504],[136.82354693933985,35.18728277498013],[136.82376111558312,35.18024833279435],[136.83245944204964,35.178677774759535],[136.8411216733266,35.17405527922779],[136.84798055795648,35.18055805391111]]]},"properties":{"N03_001":"愛知県","N03_002":null,"N03_003":null,"N03_004":"あま市","N03_007":"23237"}}]}