{"type":"FeatureCollection","features":[{"type":"Feature","geometry":{"type":"Polygon","coordinates":[[[137.06838972800358,35.05729194616646],[137.08349722411765,35.05849861332041],[137.0896591701346,35.061579170842094],[137.09584527913637,35.059473892106496],[137.10221194592464,35.06421666656598],[137.10209027214842,35.07247277479877],[137.10498111498657,35.083677504613206],[137.11309500622963,35.09449361308981],[137.11158138787084,35.09716917082062],[137.12087027214545,35.11493833283782],[137.13008027238675,35.11961833281987],[137.12055444912858,35.125071387334685],[137.11483111506402,35.131455838216425],[137.10483333299203,35.131706107850675],[137.09749416272552,35.14465055907607],[137.08813693896866,35.139222504814825],[137.0906616731977,35.13232222529052],[137.08445416302925,35.12534110750613],[137.08927583681043,35.123123613164296],[137.08533583677956,35.104765558883514],[137.08199944192074,35.09743083756314],[137.06596917034096,35.09660777532861],[137.05567360655175,35.091041945829204],[137.04993749671814,35.07581666730539],[137.04504472073734,35.069204721220956],[137.05062722456682,35.064244170532106],[137.05598500580345,35.066883613288155],[137.0687747214763,35.06156777463315],[137.06838972800358,35.05729194616646]]]},"properties":{"N03_001":"愛知県","N03_002":null,"N03_003":null,"N03_004":"みよし市","N03_007":"23236"}}]}