{"type":"FeatureCollection","features":[{"type":"Feature","geometry":{"type":"Polygon","coordinates":[[[136.83403900139888,35.355944639733366],[136.81713066145096,35.35932130623337],[136.80423204956946,35.36014158596549],[136.79288678269893,35.363457693917496],[136.79445566799473,35.36833461305201],[136.77567345026955,35.36960155906473],[136.7681153832184,35.366901838349236],[136.75911175130636,35.35719491861067],[136.75010033756064,35.33653908121369],[136.73652083007232,35.315952414272545],[136.72829747155117,35.29968574779906],[136.71938358028808,35.28875158621679],[136.71038330734382,35.282699360187394],[136.70457605753904,35.27557658569094],[136.71677897546942,35.27155863961957],[136.73632914407483,35.268175026756126],[136.74025941613922,35.258130224530305],[136.76002944200525,35.26784194574924],[136.7611272237424,35.26370333314236],[136.7758486121238,35.26032083813624],[136.78623138856778,35.2633719455589],[136.7911144491726,35.268426107578875],[136.80358639389704,35.270965838003065],[136.80743194622744,35.276353332840074],[136.8228688846914,35.275814720772814],[136.82884861187404,35.26930999995659],[136.82928194570525,35.26183694581846],[136.83313360623106,35.259700838323056],[136.83677194576876,35.25064055901464],[136.84318416321867,35.25176944110689],[136.84316000023387,35.25976555893345],[136.85068444882836,35.26468805391062],[136.8438252791134,35.27118055923546],[136.84899749693705,35.279779999847165],[136.856392775906,35.279838332573036],[136.86437888517742,35.29058861247455],[136.86506111537824,35.296643612912476],[136.8727163937466,35.2976905586724],[136.87725360656873,35.3022700000605],[136.86685250284074,35.31190555859473],[136.8548452791863,35.31688972098391],[136.85687306154261,35.32200444065245],[136.84558693948577,35.32959361255524],[136.8415074707932,35.33748969429399],[136.84180396917793,35.34553272075851],[136.83403900139888,35.355944639733366]]]},"properties":{"N03_001":"愛知県","N03_002":null,"N03_003":null,"N03_004":"一宮市","N03_007":"23203"}}]}