{"type":"FeatureCollection","features":[{"type":"Feature","geometry":{"type":"Polygon","coordinates":[[[136.83330749734318,35.16488361258871],[136.83019019532128,35.15728155879697],[136.81718306134928,35.15898305362509],[136.8183636058958,35.164640837904415],[136.80780094705608,35.16818617135476],[136.8017641632856,35.16130194562834],[136.8026250060393,35.15418000030684],[136.80941277587897,35.153571386810086],[136.8089600005037,35.1476052789605],[136.80090999979677,35.148040279235545],[136.80013027229427,35.132475558800024],[136.797572775763,35.12191750448932],[136.80919333320583,35.120860837957366],[136.81754972843726,35.126615278672205],[136.82247083036464,35.118648891533155],[136.84362250357572,35.11755222495526],[136.85371306150864,35.12220389179623],[136.8634827764091,35.12301305410921],[136.8654508302916,35.117978892112205],[136.8825578340768,35.11844077492185],[136.8862800003218,35.14055722463627],[136.895633061117,35.14276527879463],[136.89297500599184,35.158224720994156],[136.88557367098815,35.160999000003926],[136.8792725027239,35.15954610746695],[136.8614938915299,35.15130889219165],[136.83957972812198,35.14548527922233],[136.8315788852574,35.144927224711694],[136.82916610942846,35.14950277473332],[136.83738416284893,35.15640055863895],[136.83330749734318,35.16488361258871]]]},"properties":{"N03_001":"愛知県","N03_002":null,"N03_003":"名古屋市","N03_004":"中川区","N03_007":"23110"}}]}