{"type":"FeatureCollection","features":[{"type":"Feature","geometry":{"type":"Polygon","coordinates":[[[136.93034666726498,35.16988472090321],[136.90933027187464,35.169495360322685],[136.90731639393653,35.18608944117483],[136.89904111485566,35.187267504491786],[136.89404416320758,35.17983666722847],[136.89312194622096,35.1737900268883],[136.89297500599184,35.158224720994156],[136.895633061117,35.14276527879463],[136.91215500644842,35.143290838101734],[136.9102261090478,35.147689999593865],[136.92064972820242,35.15903999959636],[136.93034666726498,35.16988472090321]]]},"properties":{"N03_001":"愛知県","N03_002":null,"N03_003":"名古屋市","N03_004":"中区","N03_007":"23106"}}]}