{"type":"FeatureCollection","features":[{"type":"Feature","geometry":{"type":"Polygon","coordinates":[[[136.8659297282744,35.19166110817366],[136.85630055852403,35.18817166668913],[136.84798055795648,35.18055805391111],[136.8411216733266,35.17405527922779],[136.83330749734318,35.16488361258871],[136.83738416284893,35.15640055863895],[136.82916610942846,35.14950277473332],[136.8315788852574,35.144927224711694],[136.83957972812198,35.14548527922233],[136.8614938915299,35.15130889219165],[136.8792725027239,35.15954610746695],[136.88557367098815,35.160999000003926],[136.89297500599184,35.158224720994156],[136.89312194622096,35.1737900268883],[136.87775389132912,35.17839027858855],[136.8659297282744,35.19166110817366]]]},"properties":{"N03_001":"愛知県","N03_002":null,"N03_003":"名古屋市","N03_004":"中村区","N03_007":"23105"}}]}