{"type":"FeatureCollection","features":[{"type":"Feature","geometry":{"type":"Polygon","coordinates":[[[136.94385055795692,35.199436946058256],[136.93929027212846,35.20582777493195],[136.9283138909733,35.21031305370451],[136.92791917043348,35.214635837573894],[136.93659250294172,35.216146667135035],[136.93983250306758,35.224249440959],[136.93168610942644,35.223009999811666],[136.9255197279532,35.2310836131183],[136.92907916996774,35.23308417119762],[136.92680111527932,35.24256917063076],[136.92040666663445,35.23832610806346],[136.9108169393503,35.23642917076967],[136.90304416275796,35.240398333116616],[136.8992302719596,35.234786387281986],[136.90401639374159,35.23330666706909],[136.90747138849383,35.22256917103044],[136.90047583748992,35.21647999995207],[136.89904111485566,35.187267504491786],[136.90731639393653,35.18608944117483],[136.9169277822914,35.185363054261586],[136.9337252789985,35.19001277496966],[136.94385055795692,35.199436946058256]]]},"properties":{"N03_001":"愛知県","N03_002":null,"N03_003":"名古屋市","N03_004":"北区","N03_007":"23103"}}]}