{"type":"FeatureCollection","features":[{"type":"Feature","geometry":{"type":"Polygon","coordinates":[[[136.98575805429084,35.14927194574375],[136.99021444953723,35.168827504885485],[136.9789113105087,35.17561041388956],[136.9869663941838,35.18446055850802],[136.9851799997573,35.19348389186814],[136.97368527905246,35.19023917120086],[136.96559277638562,35.190712505078125],[136.9647652786947,35.185619441084384],[136.95503167337313,35.1871302787394],[136.93725027248217,35.18039110826311],[136.93034666726498,35.16988472090321],[136.92064972820242,35.15903999959636],[136.93206583736855,35.15748777514074],[136.95419027216337,35.15946833319708],[136.96076527949413,35.15367694563457],[136.97253306135178,35.14815138687703],[136.98575805429084,35.14927194574375]]]},"properties":{"N03_001":"愛知県","N03_002":null,"N03_003":"名古屋市","N03_004":"千種区","N03_007":"23101"}}]}