{"type":"FeatureCollection","features":[{"type":"Feature","geometry":{"type":"Polygon","coordinates":[[[136.91154527869173,35.11611027896623],[136.90466055833815,35.11811333266422],[136.90105167339607,35.1119550001232],[136.90055389144902,35.093803891536425],[136.9034811154612,35.08928250498366],[136.91212221806597,35.09068194631482],[136.90946583747848,35.08339333323579],[136.90418055778662,35.083932774478],[136.90160250275335,35.068924170514094],[136.90579055828766,35.06840722491353],[136.93110610876,35.070990837756995],[136.940801946153,35.07879833267697],[136.94189277613077,35.09069389200954],[136.94822527947315,35.09941805419987],[136.94956778202754,35.111153332760125],[136.93904306108846,35.11749610815889],[136.9298811152214,35.11555277484075],[136.92302496812783,35.10918017072834],[136.91154527869173,35.11611027896623]]]},"properties":{"N03_001":"愛知県","N03_002":null,"N03_003":"名古屋市","N03_004":"南区","N03_007":"23112"}}]}