{"type":"FeatureCollection","features":[{"type":"Feature","geometry":{"type":"Polygon","coordinates":[[[136.98575805429084,35.14927194574375],[136.99417194587863,35.14496444135591],[137.00054055790054,35.145320000018046],[137.00539917043545,35.138421946315816],[137.00999360622006,35.13684110813068],[137.01696083037814,35.13642889217971],[137.023284449318,35.139816386517055],[137.01842527920337,35.14704722534924],[137.0270200001729,35.15617444119755],[137.02288277611933,35.163197224572286],[137.02746472121999,35.168729999489926],[137.02402000032282,35.173816108126914],[137.02684389133253,35.17940250512157],[137.02580416353135,35.18511972109832],[137.02000749694844,35.190708333123155],[137.0079752793357,35.19016389165034],[136.99573027223437,35.194306946008794],[136.9928430608586,35.19751194631931],[136.9851799997573,35.19348389186814],[136.9869663941838,35.18446055850802],[136.9789113105087,35.17561041388956],[136.99021444953723,35.168827504885485],[136.98575805429084,35.14927194574375]]]},"properties":{"N03_001":"愛知県","N03_002":null,"N03_003":"名古屋市","N03_004":"名東区","N03_007":"23115"}}]}