{"type":"FeatureCollection","features":[{"type":"Feature","geometry":{"type":"Polygon","coordinates":[[[136.93984683556312,35.36134017091223],[136.9355427755787,35.35001444091375],[136.91907335874862,35.3517313600143],[136.9096886121398,35.34906333320629],[136.89964888478823,35.34133999954139],[136.89453194649218,35.335413053569596],[136.8890647213599,35.321324440770354],[136.88358778175075,35.31842722533622],[136.88294944206314,35.30923583746397],[136.88752306124036,35.304572504617454],[136.8958830609546,35.306638612482004],[136.90719360590026,35.32020222535249],[136.92175306145464,35.31928583777125],[136.9250438912626,35.32487694631408],[136.93115583677252,35.32864166667963],[136.9366485864632,35.34253658619457],[136.9355797278223,35.34595055927093],[136.94157031072132,35.35232080176365],[136.93984683556312,35.36134017091223]]]},"properties":{"N03_001":"愛知県","N03_002":null,"N03_003":"丹羽郡","N03_004":"大口町","N03_007":"23361"}}]}