{"type":"FeatureCollection","features":[{"type":"Feature","geometry":{"type":"Polygon","coordinates":[[[136.93127416327206,35.05074277455947],[136.93241389118816,35.0425602785341],[136.9266038912566,35.030328333186105],[136.93333333286705,35.02444944068918],[136.93244416326763,35.01997361289199],[136.94034888479325,35.015393613024855],[136.9337150060428,35.011238333282506],[136.92657916979294,35.01421555870115],[136.91885778226094,35.00686222501173],[136.91712027228277,34.99401527918184],[136.91909194593666,34.98174805432927],[136.92327221783864,34.97585833309563],[136.93645500649347,34.98964944116881],[136.94619167310725,34.991875559109815],[136.9618080541984,35.00348750464468],[136.97257389147194,34.999469161972286],[136.98104194652865,35.001494721204494],[136.9881916728075,35.00901000031132],[136.98758972778376,35.01557194588867],[136.99063221790254,35.02233305352763],[137.00165027184266,35.02704138665075],[136.99703999989617,35.038949720853],[136.98738360586879,35.03799944052179],[136.98449639449302,35.042773891801744],[136.97387693896962,35.049006386935275],[136.97225277594487,35.043064441171055],[136.96189333331074,35.039563332781654],[136.95320306117242,35.04477277534335],[136.94633500615566,35.0441930534667],[136.9411174975745,35.0521563865081],[136.93127416327206,35.05074277455947]]]},"properties":{"N03_001":"愛知県","N03_002":null,"N03_003":null,"N03_004":"大府市","N03_007":"23223"}}]}