{"type":"FeatureCollection","features":[{"type":"Feature","geometry":{"type":"Polygon","coordinates":[[[136.8411216733266,35.17405527922779],[136.83245944204964,35.178677774759535],[136.82376111558312,35.18024833279435],[136.82354693933985,35.18728277498013],[136.8139922181664,35.187318333274504],[136.8090836060237,35.19008999975375],[136.80780094705608,35.16818617135476],[136.8183636058958,35.164640837904415],[136.81718306134928,35.15898305362509],[136.83019019532128,35.15728155879697],[136.83330749734318,35.16488361258871],[136.8411216733266,35.17405527922779]]]},"properties":{"N03_001":"愛知県","N03_002":null,"N03_003":"海部郡","N03_004":"大治町","N03_007":"23424"}}]}