{"type":"FeatureCollection","features":[{"type":"Feature","geometry":{"type":"Polygon","coordinates":[[[136.97253306135178,35.14815138687703],[136.97231306109893,35.14177417104122],[136.96672167286692,35.135734999570616],[136.96075000001258,35.1356075053821],[136.95865221802546,35.13106277512702],[136.96218944228895,35.11669444079587],[136.94956778202754,35.111153332760125],[136.94822527947315,35.09941805419987],[136.98436167335262,35.104362224636986],[136.99070944178732,35.10912277509607],[137.00184389138258,35.10135083757115],[137.0199697281205,35.109570838023785],[137.0145036064563,35.11699472082978],[137.00329583693338,35.12840110832457],[137.00999360622006,35.13684110813068],[137.00539917043545,35.138421946315816],[137.00054055790054,35.145320000018046],[136.99417194587863,35.14496444135591],[136.98575805429084,35.14927194574375],[136.97253306135178,35.14815138687703]]]},"properties":{"N03_001":"愛知県","N03_002":null,"N03_003":"名古屋市","N03_004":"天白区","N03_007":"23116"}}]}