{"type":"FeatureCollection","features":[{"type":"Feature","geometry":{"type":"Polygon","coordinates":[[[136.9851799997573,35.19348389186814],[136.9928430608586,35.19751194631931],[136.99573027223437,35.194306946008794],[137.0079752793357,35.19016389165034],[137.02000749694844,35.190708333123155],[137.03225778217097,35.19181166727469],[137.01328333345919,35.201041108160666],[137.00154360595275,35.20929861304063],[137.00674027184618,35.21923666663889],[137.01085306131984,35.22118027874694],[137.01945306130983,35.231269720621185],[137.0391316728884,35.23811500030706],[137.04377916986599,35.24150833297233],[137.0598769388697,35.24628110798682],[137.05496500642994,35.2504197205937],[137.05034111515045,35.26022889234957],[137.0369658374035,35.25840527858077],[137.02915194650518,35.25900277465837],[137.0201405579404,35.25236750465666],[137.01364416304773,35.25162110782793],[137.01077194606853,35.24472722518135],[137.0053216731568,35.240411386776145],[136.99316805426236,35.240859440710665],[136.98974333338822,35.237904720826236],[136.98901834042408,35.22671666714052],[136.98144583745545,35.22523138731873],[136.97363999998606,35.21843055932288],[136.93659250294172,35.216146667135035],[136.92791917043348,35.214635837573894],[136.9283138909733,35.21031305370451],[136.93929027212846,35.20582777493195],[136.94385055795692,35.199436946058256],[136.95083306069728,35.194294720624896],[136.96559277638562,35.190712505078125],[136.97368527905246,35.19023917120086],[136.9851799997573,35.19348389186814]]]},"properties":{"N03_001":"愛知県","N03_002":null,"N03_003":"名古屋市","N03_004":"守山区","N03_007":"23113"}}]}