{"type":"FeatureCollection","features":[{"type":"Feature","geometry":{"type":"Polygon","coordinates":[[[137.11636749706236,34.991346945705004],[137.11210693908401,35.00206305406675],[137.10072221805603,35.0087802792865],[137.09437527879618,35.00743194552791],[137.08505610895236,35.0098305588333],[137.0847919456918,35.00556333328126],[137.07888138806572,35.00053610775524],[137.07006666684322,34.99729472087472],[137.07239111485808,34.986008332618496],[137.06401221768976,34.9846766668947],[137.06041055790104,34.9798722250232],[137.0458294421751,34.980620279302514],[137.04819944175085,34.97376194595711],[137.0425436063025,34.968347225044454],[137.04683972797113,34.96051638732149],[137.0424627761363,34.95907166692393],[137.03582472093422,34.96283666697866],[137.0292677818827,34.960337495079386],[137.01052167283694,34.947389999648806],[137.0120947210945,34.93565249526648],[137.0168522183552,34.931104720806275],[137.0242122178197,34.931734721080545],[137.03181666740534,34.9371858285632],[137.03486167292795,34.92119694558261],[137.01882360602463,34.911226946266595],[137.01331972812307,34.90492361333412],[137.01634250330392,34.89432833248662],[137.02222027254766,34.89451555874609],[137.02813500572597,34.89069805357235],[137.03655749753057,34.89016222490682],[137.04043416280638,34.8961288921347],[137.04628027231672,34.89459361270514],[137.04839555151352,34.90060277469837],[137.06751306077922,34.91270055918352],[137.06677527945567,34.90607777446979],[137.0628986123811,34.90014749471118],[137.0647258369279,34.88889944095649],[137.08949277577108,34.89034555890049],[137.0978072239243,34.89409333334072],[137.10798805400555,34.90410472125592],[137.1054855510174,34.91171527903697],[137.11089027236824,34.91977805371425],[137.11922834031577,34.927094161766206],[137.10859610902332,34.93543194552791],[137.10576319151812,34.943853720572804],[137.11646250324202,34.95635333294001],[137.11995277570009,34.96451305363456],[137.1153797284917,34.96975749511239],[137.1250161090063,34.97731694622013],[137.11910250357778,34.98173222446263],[137.11636749706236,34.991346945705004]]]},"properties":{"N03_001":"愛知県","N03_002":null,"N03_003":null,"N03_004":"安城市","N03_007":"23212"}}]}