{"type":"FeatureCollection","features":[{"type":"Feature","geometry":{"type":"Polygon","coordinates":[[[137.046229105389,35.339442440816015],[137.03244855985326,35.33377436019862],[137.01287972851674,35.33483472114551],[137.01215805405104,35.33169277500161],[137.0007513877664,35.33216805411246],[136.98915639445215,35.33061250486327],[136.98526888515096,35.32128417092781],[136.97888888501404,35.324719720538724],[136.96936833987706,35.32227638664597],[136.96477500576202,35.316644440788366],[136.94732138797178,35.313375279245804],[136.95033138828296,35.32290444078734],[136.92698083040102,35.321365837463475],[136.92175306145464,35.31928583777125],[136.90719360590026,35.32020222535249],[136.8958830609546,35.306638612482004],[136.88752306124036,35.304572504617454],[136.88400693956862,35.299374170481656],[136.88310221799304,35.289493892029554],[136.8858202722878,35.28326083751767],[136.88496749735214,35.27515083764109],[136.88068472072337,35.266580559345414],[136.8820963937336,35.26424389224189],[136.89620360631147,35.26285527874819],[136.89735138855576,35.25555305353066],[136.90232917025503,35.25549472080479],[136.9086122180795,35.26163389149093],[136.91718360613856,35.265246107521875],[136.9236894421141,35.263357505144825],[136.93080749696844,35.257318053985045],[136.93117444914162,35.27337889172253],[136.94593055854853,35.27751055886523],[136.9430411150555,35.28726750519127],[136.9569816733656,35.28097333275315],[136.97282583744254,35.28525138704191],[136.98940000010998,35.28060805421836],[137.00765083002182,35.286287504964434],[137.01362138771697,35.29328110803675],[137.01326444949484,35.29765638713263],[137.01766333309638,35.30629666685775],[137.01852036272464,35.31708608075809],[137.0248224123245,35.32498244128669],[137.04008408641153,35.33008161257641],[137.046229105389,35.339442440816015]]]},"properties":{"N03_001":"愛知県","N03_002":null,"N03_003":null,"N03_004":"小牧市","N03_007":"23219"}}]}