{"type":"FeatureCollection","features":[{"type":"Feature","geometry":{"type":"Polygon","coordinates":[[[137.03225778217097,35.19181166727469],[137.0435361089044,35.19117472063692],[137.04982944227504,35.1947402789408],[137.04908972830833,35.20271583826536],[137.05701250282482,35.208017504504255],[137.0622077819636,35.20841055860046],[137.0681999998302,35.214192224491626],[137.05998333316438,35.21594833334893],[137.057290557913,35.22184194594911],[137.0657620231989,35.2388731081075],[137.0598769388697,35.24628110798682],[137.04377916986599,35.24150833297233],[137.0391316728884,35.23811500030706],[137.01945306130983,35.231269720621185],[137.01085306131984,35.22118027874694],[137.00674027184618,35.21923666663889],[137.00154360595275,35.20929861304063],[137.01328333345919,35.201041108160666],[137.03225778217097,35.19181166727469]]]},"properties":{"N03_001":"愛知県","N03_002":null,"N03_003":null,"N03_004":"尾張旭市","N03_007":"23226"}}]}