{"type":"FeatureCollection","features":[{"type":"Feature","geometry":{"type":"Polygon","coordinates":[[[137.38514722406524,34.990747224704705],[137.37511472096764,34.9979013873392],[137.37656834015684,35.00144027894578],[137.37075944189485,35.0154625046909],[137.35487167328915,35.01431250471836],[137.3475827760244,35.01531110832104],[137.3457547214033,35.00930305429256],[137.3285522177107,35.017420279322494],[137.31955778226586,35.01551917097299],[137.31534639382107,35.02040722461379],[137.30880693938877,35.01619833268694],[137.296036394564,35.01881333276913],[137.28911082970114,35.01795527881313],[137.28237610907024,35.020879440633735],[137.27331944233845,35.028429440766104],[137.2664905581928,35.0195038915914],[137.26151944226854,35.01679999982019],[137.25560693940884,35.028171945978556],[137.24259277633564,35.02893583821839],[137.23702722382734,35.03927417106621],[137.22544277596342,35.04012472107905],[137.21762834007586,35.03767500020115],[137.21246527914934,35.04148555901139],[137.20776917051091,35.0330297212447],[137.1991130609191,35.034290278473634],[137.19276472141485,35.03825805406598],[137.18575833987552,35.03132138707241],[137.17727527873114,35.03490138668968],[137.17050416343648,35.03485889192439],[137.15975250307565,35.026223053950844],[137.16039500572504,35.01674250526247],[137.1661013884684,35.0029511076076],[137.16020555094553,34.996538053788186],[137.14788221828985,34.992497774852495],[137.14086194582217,34.997893612700125],[137.1297813881007,34.998988891624094],[137.12296082987848,34.99060999985164],[137.11636749706236,34.991346945705004],[137.11910250357778,34.98173222446263],[137.1250161090063,34.97731694622013],[137.1153797284917,34.96975749511239],[137.11995277570009,34.96451305363456],[137.11646250324202,34.95635333294001],[137.10576319151812,34.943853720572804],[137.10859610902332,34.93543194552791],[137.11922834031577,34.927094161766206],[137.11089027236824,34.91977805371425],[137.1054855510174,34.91171527903697],[137.10798805400555,34.90410472125592],[137.11478693946572,34.89996861326097],[137.11521250315457,34.89076249449357],[137.10633500655535,34.88718555886652],[137.10309138845685,34.878852224950265],[137.11729111519287,34.879888332980215],[137.12856194607707,34.88950222504769],[137.13781834054407,34.89051555864614],[137.1535866674908,34.88682110770799],[137.1581602722788,34.889163892000056],[137.1617986118165,34.9003669454782],[137.1671208302622,34.90565694571154],[137.17699472082973,34.9097136129929],[137.1929230614502,34.90540361298639],[137.19579639448807,34.90085444097974],[137.20313221837728,34.89903472127543],[137.20826194593212,34.89239166674207],[137.20235610884743,34.890670558599425],[137.20066917044596,34.8846416672792],[137.2108125032945,34.87786638722406],[137.21214194589413,34.867636946088226],[137.22562555147806,34.87010582882101],[137.23233555154457,34.864604999621065],[137.23877500586184,34.86675889210926],[137.2563497281575,34.8609788917625],[137.25615666709655,34.86931944093948],[137.2627452793712,34.87555555854226],[137.26306138837242,34.88177138654032],[137.26827416292235,34.885251386942],[137.27852000049768,34.88134110770602],[137.29145333340466,34.8823588920493],[137.29684250277933,34.88628749497195],[137.30347360622204,34.877739721311116],[137.31282944232498,34.88382138664775],[137.33557221858314,34.89110222508765],[137.35002555143808,34.89828166676557],[137.35208972845828,34.89159555898789],[137.35850610886985,34.89116999979569],[137.36094555139618,34.88576749527374],[137.37722888500514,34.8934469456201],[137.38228639430167,34.88789333251134],[137.39401221828928,34.88333833289778],[137.40450444942087,34.89404444079838],[137.4036613880627,34.90210082849052],[137.41164639386602,34.90731194558987],[137.42054610911566,34.909745828507255],[137.42105749690597,34.915709161948314],[137.41712333347516,34.92349666673783],[137.41116500655983,34.92765722460126],[137.4096230613552,34.93765138690202],[137.41263027196953,34.94220333331725],[137.40208749714031,34.95148472084327],[137.40245805379618,34.95922805363182],[137.39178250306009,34.965945000061765],[137.40024693924488,34.97577916217864],[137.40035111491204,34.982022495042145],[137.39060555130516,34.982888892008816],[137.38514722406524,34.990747224704705]]]},"properties":{"N03_001":"愛知県","N03_002":null,"N03_003":null,"N03_004":"岡崎市","N03_007":"23202"}}]}