{"type":"FeatureCollection","features":[{"type":"Feature","geometry":{"type":"Polygon","coordinates":[[[136.85068444882836,35.26468805391062],[136.86006834018178,35.264862505300414],[136.8743833330244,35.258382774845245],[136.88068472072337,35.266580559345414],[136.88496749735214,35.27515083764109],[136.8858202722878,35.28326083751767],[136.88310221799304,35.289493892029554],[136.88400693956862,35.299374170481656],[136.87725360656873,35.3022700000605],[136.8727163937466,35.2976905586724],[136.86506111537824,35.296643612912476],[136.86437888517742,35.29058861247455],[136.856392775906,35.279838332573036],[136.84899749693705,35.279779999847165],[136.8438252791134,35.27118055923546],[136.85068444882836,35.26468805391062]]]},"properties":{"N03_001":"愛知県","N03_002":null,"N03_003":null,"N03_004":"岩倉市","N03_007":"23228"}}]}