{"type":"FeatureCollection","features":[{"type":"Feature","geometry":{"type":"MultiPolygon","coordinates":[[[[136.80583147943923,34.87764219792916],[136.7984521139739,34.87557658559098],[136.8005643318785,34.87040744075085],[136.80647830153248,34.845858081185554],[136.8069654993584,34.84018969389933],[136.81420316494416,34.84020638711513],[136.81264128446776,34.846731531535],[136.82446963746384,34.84874369356663],[136.82338566841395,34.859187559158556],[136.81537605715937,34.872061278705075],[136.80583147943923,34.87764219792916]]],[[[136.87978805437524,34.91811277458493],[136.88360527896054,34.92046499995985],[136.89202722397727,34.93731749470669],[136.89168916971948,34.94000055907861],[136.88066722441295,34.9424080540885],[136.86422639433272,34.94162277507104],[136.85498805375573,34.93230389211101],[136.847051388311,34.93213666677383],[136.83486194582224,34.937457494867544],[136.8250000135398,34.939359305587516],[136.8221892355449,34.91509479279051],[136.8222267444687,34.902027306215246],[136.82601632929027,34.89260791862063],[136.82169603114698,34.884233197903825],[136.82749313929696,34.875303720490365],[136.8327701946888,34.874447467876394],[136.83688405975158,34.88410380164919],[136.84107900139486,34.87783391900024],[136.85721547301569,34.86208008103097],[136.8569098312238,34.85611377533053],[136.86135846981756,34.85058222528954],[136.86660875509006,34.838011251717944],[136.8618444103913,34.814052972466754],[136.87865194623043,34.812770559014155],[136.88691333348356,34.81500527897049],[136.88251138769044,34.823588612724336],[136.8846322184022,34.82760666671436],[136.88450111523434,34.84032999982969],[136.88189500584986,34.850737225242824],[136.8914258374325,34.85557944133819],[136.88812055821722,34.86516194616695],[136.88142749688154,34.86819722462229],[136.8756880541605,34.878340829066076],[136.8769011154941,34.8963347208707],[136.86575055814183,34.90017555895491],[136.86947666701462,34.90983055903314],[136.87978805437524,34.91811277458493]]]]},"properties":{"N03_001":"愛知県","N03_002":null,"N03_003":null,"N03_004":"常滑市","N03_007":"23216"}}]}