{"type":"FeatureCollection","features":[{"type":"Feature","geometry":{"type":"Polygon","coordinates":[[[137.13781834054407,34.89051555864614],[137.13967944255228,34.882419440704666],[137.13268111534126,34.869606946103715],[137.11517583689545,34.86988889165906],[137.11200306109242,34.86485361270411],[137.11517306068822,34.859910559225],[137.12234027248564,34.85900110811468],[137.12700055842913,34.85347166698392],[137.12139944223054,34.84594610772672],[137.1131391701366,34.85362444111513],[137.10468250319502,34.85178555865667],[137.10171000011644,34.84268805371079],[137.11722722375748,34.83871333265421],[137.12398749682563,34.844395000229156],[137.1350416729349,34.83432861247553],[137.14635167289146,34.82827249507966],[137.1477069395237,34.82337361270214],[137.15540111536927,34.82498582913274],[137.16369416325506,34.81495833256105],[137.1704266670571,34.82151472122746],[137.19959972814502,34.82517082867088],[137.191746108796,34.83273500032004],[137.19799555075417,34.8414988918604],[137.19295444868897,34.8481811082716],[137.1970905584825,34.85310861247257],[137.2055055508406,34.85641666699564],[137.20439805372723,34.86109305350169],[137.21214194589413,34.867636946088226],[137.2108125032945,34.87786638722406],[137.20066917044596,34.8846416672792],[137.20235610884743,34.890670558599425],[137.20826194593212,34.89239166674207],[137.20313221837728,34.89903472127543],[137.19579639448807,34.90085444097974],[137.1929230614502,34.90540361298639],[137.17699472082973,34.9097136129929],[137.1671208302622,34.90565694571154],[137.1617986118165,34.9003669454782],[137.1581602722788,34.889163892000056],[137.1535866674908,34.88682110770799],[137.13781834054407,34.89051555864614]]]},"properties":{"N03_001":"愛知県","N03_002":null,"N03_003":"額田郡","N03_004":"幸田町","N03_007":"23501"}}]}