{"type":"FeatureCollection","features":[{"type":"Feature","geometry":{"type":"Polygon","coordinates":[[[136.92145002589803,35.37902953158766],[136.90852693896716,35.37756594611159],[136.89271775581983,35.37808899990745],[136.8988899478129,35.37177346767146],[136.89604880690695,35.36658346755303],[136.8964235022429,35.3596844138047],[136.89185311343056,35.35378772102655],[136.89964888478823,35.34133999954139],[136.9096886121398,35.34906333320629],[136.91907335874862,35.3517313600143],[136.9355427755787,35.35001444091375],[136.93984683556312,35.36134017091223],[136.9352374971129,35.37021733296359],[136.9306369135628,35.36778455891033],[136.92104077770978,35.36787013479892],[136.9168749678056,35.371474278515166],[136.92145002589803,35.37902953158766]]]},"properties":{"N03_001":"愛知県","N03_002":null,"N03_003":"丹羽郡","N03_004":"扶桑町","N03_007":"23362"}}]}