{"type":"FeatureCollection","features":[{"type":"Feature","geometry":{"type":"Polygon","coordinates":[[[137.02111306141876,35.109801107635064],[137.02397167345407,35.10792305430556],[137.03289778200713,35.11267722497399],[137.03943916998173,35.10870055868389],[137.0462055512453,35.11389833254208],[137.0535483403837,35.11609194628636],[137.0605669392129,35.11512777502685],[137.06774389156737,35.12112083825616],[137.07541360585333,35.119323892084026],[137.08445416302925,35.12534110750613],[137.0906616731977,35.13232222529052],[137.08813693896866,35.139222504814825],[137.09749416272552,35.14465055907607],[137.09612221816587,35.15717499992638],[137.07606778170282,35.15815055930091],[137.05922055788255,35.16239833251706],[137.0597163936967,35.16777333307289],[137.04806666674335,35.167788054075515],[137.04355250354524,35.16279805418691],[137.03613333318685,35.16046417048511],[137.0312650061752,35.15476972084599],[137.0270200001729,35.15617444119755],[137.01842527920337,35.14704722534924],[137.023284449318,35.139816386517055],[137.01696083037814,35.13642889217971],[137.00999360622006,35.13684110813068],[137.00329583693338,35.12840110832457],[137.0145036064563,35.11699472082978],[137.0199697281205,35.109570838023785],[137.02111306141876,35.109801107635064]]]},"properties":{"N03_001":"愛知県","N03_002":null,"N03_003":null,"N03_004":"日進市","N03_007":"23230"}}]}