{"type":"FeatureCollection","features":[{"type":"Feature","geometry":{"type":"Polygon","coordinates":[[[136.93659250294172,35.216146667135035],[136.97363999998606,35.21843055932288],[136.98144583745545,35.22523138731873],[136.98901834042408,35.22671666714052],[136.98974333338822,35.237904720826236],[136.99316805426236,35.240859440710665],[137.0053216731568,35.240411386776145],[137.01077194606853,35.24472722518135],[137.01364416304773,35.25162110782793],[137.0201405579404,35.25236750465666],[137.02915194650518,35.25900277465837],[137.0369658374035,35.25840527858077],[137.05034111515045,35.26022889234957],[137.05571055789596,35.26532250492971],[137.06840194619292,35.26303555864416],[137.0806653309403,35.27447527861125],[137.08179036303488,35.278935558928936],[137.09627927396934,35.29070110776996],[137.09208732796787,35.29276861318101],[137.08131066105818,35.29219083833658],[137.07978374802167,35.30677889233209],[137.07216403424286,35.3066527750056],[137.06717044156267,35.31150108130993],[137.06407822343135,35.32066330596683],[137.07297880742613,35.326456919351415],[137.06821771737384,35.33568191848582],[137.0617574455497,35.33903133282979],[137.04989856057023,35.334369386737876],[137.0463113357996,35.33954133296618],[137.046229105389,35.339442440816015],[137.04008408641153,35.33008161257641],[137.0248224123245,35.32498244128669],[137.01852036272464,35.31708608075809],[137.01766333309638,35.30629666685775],[137.01326444949484,35.29765638713263],[137.01362138771697,35.29328110803675],[137.00765083002182,35.286287504964434],[136.98940000010998,35.28060805421836],[136.97282583744254,35.28525138704191],[136.9569816733656,35.28097333275315],[136.9430411150555,35.28726750519127],[136.94593055854853,35.27751055886523],[136.93117444914162,35.27337889172253],[136.93080749696844,35.257318053985045],[136.93151138823998,35.2465802791566],[136.92680111527932,35.24256917063076],[136.92907916996774,35.23308417119762],[136.9255197279532,35.2310836131183],[136.93168610942644,35.223009999811666],[136.93983250306758,35.224249440959],[136.93659250294172,35.216146667135035]]]},"properties":{"N03_001":"愛知県","N03_002":null,"N03_003":null,"N03_004":"春日井市","N03_007":"23206"}}]}