{"type":"FeatureCollection","features":[{"type":"Feature","geometry":{"type":"Polygon","coordinates":[[[136.92064972820242,35.15903999959636],[136.9102261090478,35.147689999593865],[136.91215500644842,35.143290838101734],[136.91467778195408,35.13735805373125],[136.91907778161442,35.139268279407645],[136.93693555113487,35.14055889197931],[136.93734693881026,35.13777750472809],[136.95193360605117,35.1381355590089],[136.96075000001258,35.1356075053821],[136.96672167286692,35.135734999570616],[136.97231306109893,35.14177417104122],[136.97253306135178,35.14815138687703],[136.96076527949413,35.15367694563457],[136.95419027216337,35.15946833319708],[136.93206583736855,35.15748777514074],[136.92064972820242,35.15903999959636]]]},"properties":{"N03_001":"愛知県","N03_002":null,"N03_003":"名古屋市","N03_004":"昭和区","N03_007":"23107"}}]}