{"type":"FeatureCollection","features":[{"type":"Feature","geometry":{"type":"Polygon","coordinates":[[[136.96559277638562,35.190712505078125],[136.95083306069728,35.194294720624896],[136.94385055795692,35.199436946058256],[136.9337252789985,35.19001277496966],[136.9169277822914,35.185363054261586],[136.90731639393653,35.18608944117483],[136.90933027187464,35.169495360322685],[136.93034666726498,35.16988472090321],[136.93725027248217,35.18039110826311],[136.95503167337313,35.1871302787394],[136.9647652786947,35.185619441084384],[136.96559277638562,35.190712505078125]]]},"properties":{"N03_001":"愛知県","N03_002":null,"N03_003":"名古屋市","N03_004":"東区","N03_007":"23102"}}]}