{"type":"FeatureCollection","features":[{"type":"Feature","geometry":{"type":"Polygon","coordinates":[[[136.88396306074674,35.067267774887966],[136.8863770560564,35.06581450463574],[136.87921941574348,35.047394891760916],[136.8893009211007,35.04547264035011],[136.88926328087575,35.04225346762348],[136.87026866396775,35.042231586218804],[136.8676755767665,35.04007433296414],[136.85423474743573,35.020501225351325],[136.85267350188064,35.01520927898508],[136.87058282683608,35.01262019826362],[136.86978884597852,35.00836085616862],[136.8798391700417,35.004137225252805],[136.8852761087055,34.99825833275588],[136.893080000042,34.9968294413257],[136.8979069393538,34.98116194546748],[136.9069999998502,34.98039500002926],[136.91436000021395,34.969582774825255],[136.92327221783864,34.97585833309563],[136.91909194593666,34.98174805432927],[136.91712027228277,34.99401527918184],[136.91885778226094,35.00686222501173],[136.92657916979294,35.01421555870115],[136.9337150060428,35.011238333282506],[136.94034888479325,35.015393613024855],[136.93244416326763,35.01997361289199],[136.93333333286705,35.02444944068918],[136.9266038912566,35.030328333186105],[136.93241389118816,35.0425602785341],[136.93127416327206,35.05074277455947],[136.92575693943127,35.05860417124558],[136.92442389144946,35.064417504963956],[136.91777444903164,35.062916666870706],[136.9130472238504,35.068477224544324],[136.90579055828766,35.06840722491353],[136.90160250275335,35.068924170514094],[136.88396306074674,35.067267774887966]]]},"properties":{"N03_001":"愛知県","N03_002":null,"N03_003":null,"N03_004":"東海市","N03_007":"23222"}}]}