{"type":"FeatureCollection","features":[{"type":"Feature","geometry":{"type":"Polygon","coordinates":[[[137.70491944187881,35.01475610790811],[137.71652000019787,35.02746889197584],[137.71734805456913,35.03514861301812],[137.72875250312563,35.040336945793456],[137.74027610915516,35.056512504648424],[137.7547441630128,35.065425838331805],[137.76846693879827,35.07233583772876],[137.77567472081182,35.07798166732016],[137.77455861179055,35.09269972101538],[137.7782683404116,35.09962305376098],[137.77416610897876,35.1004733330779],[137.76160888514198,35.11205889160459],[137.7478405577956,35.11488694557613],[137.7455219463808,35.122955558652166],[137.73982333288052,35.122606386975235],[137.7156788849726,35.13098389199308],[137.71168888533384,35.12556666646856],[137.6941888850091,35.124074720871704],[137.68905861246503,35.132924441010175],[137.6821213878918,35.132659440480836],[137.67058000046666,35.129031945867666],[137.65974055818026,35.129417225324744],[137.6553511147622,35.13941555868115],[137.6503977820321,35.146339171115926],[137.63745972768436,35.14233138648433],[137.6309308303936,35.142647504478816],[137.62142333352006,35.13801583766082],[137.6103341629913,35.1400072253532],[137.6102186117996,35.119346946204644],[137.6061413878149,35.111153892138475],[137.60633250274282,35.10344194568927],[137.60959416304024,35.097866667013136],[137.62106250303214,35.09805805353642],[137.6253411149006,35.08936361304035],[137.63328583737155,35.08394222455405],[137.63419749721675,35.072487774591195],[137.6378113877854,35.06429444083585],[137.65206778170284,35.054447774545224],[137.65464389150247,35.049923054205635],[137.6623583398656,35.04979527852936],[137.66656583694385,35.042118892173164],[137.67456444948982,35.040298613090556],[137.68073888529136,35.04247361266715],[137.69153861171765,35.03796722500749],[137.69146055775855,35.0330577746966],[137.70134138839444,35.030255837936636],[137.7057988853104,35.02245499979847],[137.70491944187881,35.01475610790811]]]},"properties":{"N03_001":"愛知県","N03_002":null,"N03_003":"北設楽郡","N03_004":"東栄町","N03_007":"23562"}}]}