{"type":"FeatureCollection","features":[{"type":"Feature","geometry":{"type":"Polygon","coordinates":[[[137.02148055858095,35.09122361247978],[137.02741072592437,35.08525530578777],[137.03550306131729,35.083883333349206],[137.04069333303096,35.0795499995329],[137.04291444894272,35.067873332488375],[137.04504472073734,35.069204721220956],[137.04993749671814,35.07581666730539],[137.05567360655175,35.091041945829204],[137.06596917034096,35.09660777532861],[137.08199944192074,35.09743083756314],[137.08533583677956,35.104765558883514],[137.08927583681043,35.123123613164296],[137.08445416302925,35.12534110750613],[137.07541360585333,35.119323892084026],[137.06774389156737,35.12112083825616],[137.0605669392129,35.11512777502685],[137.0535483403837,35.11609194628636],[137.0462055512453,35.11389833254208],[137.03943916998173,35.10870055868389],[137.03289778200713,35.11267722497399],[137.02397167345407,35.10792305430556],[137.02111306141876,35.109801107635064],[137.02344444950177,35.10273305418713],[137.02000999976178,35.096100558593946],[137.02148055858095,35.09122361247978]]]},"properties":{"N03_001":"愛知県","N03_002":null,"N03_003":"愛知郡","N03_004":"東郷町","N03_007":"23302"}}]}