{"type":"FeatureCollection","features":[{"type":"Feature","geometry":{"type":"Polygon","coordinates":[[[136.8756880541605,34.878340829066076],[136.88142749688154,34.86819722462229],[136.88812055821722,34.86516194616695],[136.8914258374325,34.85557944133819],[136.88189500584986,34.850737225242824],[136.88450111523434,34.84032999982969],[136.8846322184022,34.82760666671436],[136.88251138769044,34.823588612724336],[136.88691333348356,34.81500527897049],[136.90408805442019,34.81483082848001],[136.91428972808853,34.81108444079433],[136.92131980496504,34.8132477842579],[136.9253655247992,34.81398908103131],[136.926885940234,34.82759541349759],[136.93539578498758,34.830043063236815],[136.93600927370903,34.835831386809105],[136.92936954576794,34.83907125203672],[136.93043817148452,34.84850825195434],[136.93456247677693,34.84848119764922],[136.93544561642216,34.85712169411096],[136.92807077814393,34.85861086529923],[136.9282198308806,34.86553180225093],[136.9407346175086,34.86277455010543],[136.92366167284797,34.870019440844544],[136.915191673457,34.8685502786725],[136.8945852789875,34.875036945598595],[136.88420389109672,34.8734997209354],[136.8756880541605,34.878340829066076]]]},"properties":{"N03_001":"愛知県","N03_002":null,"N03_003":"知多郡","N03_004":"武豊町","N03_007":"23447"}}]}