{"type":"FeatureCollection","features":[{"type":"Feature","geometry":{"type":"Polygon","coordinates":[[[136.87725360656873,35.3022700000605],[136.88400693956862,35.299374170481656],[136.88752306124036,35.304572504617454],[136.88294944206314,35.30923583746397],[136.88358778175075,35.31842722533622],[136.8890647213599,35.321324440770354],[136.89453194649218,35.335413053569596],[136.89964888478823,35.34133999954139],[136.89185311343056,35.35378772102655],[136.8964235022429,35.3596844138047],[136.89604880690695,35.36658346755303],[136.8988899478129,35.37177346767146],[136.89271775581983,35.37808899990745],[136.8649318288409,35.37260541430845],[136.8612623871495,35.36837710781731],[136.83403900139888,35.355944639733366],[136.84180396917793,35.34553272075851],[136.8415074707932,35.33748969429399],[136.84558693948577,35.32959361255524],[136.85687306154261,35.32200444065245],[136.8548452791863,35.31688972098391],[136.86685250284074,35.31190555859473],[136.87725360656873,35.3022700000605]]]},"properties":{"N03_001":"愛知県","N03_002":null,"N03_003":null,"N03_004":"江南市","N03_007":"23217"}}]}