{"type":"FeatureCollection","features":[{"type":"Feature","geometry":{"type":"Polygon","coordinates":[[[136.77093221814744,35.13685917101401],[136.77089138802717,35.14758444076938],[136.7821811154662,35.14973889173649],[136.78453944184184,35.15737750476808],[136.78286666686324,35.16064666720996],[136.78662416297482,35.17221555860118],[136.77999333292598,35.172293612560225],[136.77941722452533,35.184407225113375],[136.77193055824876,35.1980913867082],[136.76356306088667,35.1997169454807],[136.754060830443,35.178980558506],[136.74649500583996,35.18156250490574],[136.7378100001315,35.18129805386212],[136.72227555087602,35.18600500023064],[136.7202613617725,35.18850913458897],[136.70901688731954,35.18947105394602],[136.70705525279777,35.179126360193436],[136.70997027211047,35.163752747491344],[136.7268100000815,35.168387775075814],[136.7323536064339,35.16667305391837],[136.75370194608797,35.14872722458182],[136.75975834047506,35.13359638656402],[136.77093221814744,35.13685917101401]]]},"properties":{"N03_001":"愛知県","N03_002":null,"N03_003":null,"N03_004":"津島市","N03_007":"23208"}}]}