{"type":"FeatureCollection","features":[{"type":"Feature","geometry":{"type":"MultiPolygon","coordinates":[[[[136.84866975430577,35.05604525198686],[136.84058503257324,35.05603594580231],[136.83797710835688,35.05183694551869],[136.84408269835785,35.0416215589878],[136.85202849551877,35.04385127871359],[136.8549564461831,35.05530846801145],[136.84866975430577,35.05604525198686]]],[[[136.87815730201794,35.07192489162048],[136.8694575878974,35.06806205432042],[136.87030330675225,35.06301377476592],[136.86525383919343,35.05000650499625],[136.8750569135458,35.05199313527504],[136.8819548899063,35.069347864512395],[136.87815730201794,35.07192489162048]]],[[[136.8825578340768,35.11844077492185],[136.8654508302916,35.117978892112205],[136.8634827764091,35.12301305410921],[136.85371306150864,35.12220389179623],[136.84362250357572,35.11755222495526],[136.82247083036464,35.118648891533155],[136.81754972843726,35.126615278672205],[136.80919333320583,35.120860837957366],[136.797572775763,35.12191750448932],[136.7941966668427,35.12198277458543],[136.79196917024103,35.11225999979922],[136.79808778242523,35.10185333286506],[136.79794416339246,35.0969361079151],[136.8100594423894,35.09337889172252],[136.82486451448585,35.08010352325903],[136.84725134897064,35.08304756819075],[136.84966032426462,35.07802666669738],[136.84571142724064,35.064278333078676],[136.84259683487608,35.05927822481027],[136.8554795593343,35.056587640307384],[136.86929338518166,35.08210141394915],[136.86853674417546,35.08820674764337],[136.87533044144675,35.09039935954286],[136.89034066149236,35.08992399949301],[136.8895868614445,35.07034072054785],[136.88396306074674,35.067267774887966],[136.90160250275335,35.068924170514094],[136.90418055778662,35.083932774478],[136.90946583747848,35.08339333323579],[136.91212221806597,35.09068194631482],[136.9034811154612,35.08928250498366],[136.90055389144902,35.093803891536425],[136.90105167339607,35.1119550001232],[136.88949221769178,35.11308722499547],[136.88949111512295,35.11845444101971],[136.8825578340768,35.11844077492185]]]]},"properties":{"N03_001":"愛知県","N03_002":null,"N03_003":"名古屋市","N03_004":"港区","N03_007":"23111"}}]}