{"type":"FeatureCollection","features":[{"type":"Feature","geometry":{"type":"Polygon","coordinates":[[[137.0598769388697,35.24628110798682],[137.0657620231989,35.2388731081075],[137.057290557913,35.22184194594911],[137.05998333316438,35.21594833334893],[137.0681999998302,35.214192224491626],[137.0622077819636,35.20841055860046],[137.05701250282482,35.208017504504255],[137.04908972830833,35.20271583826536],[137.04982944227504,35.1947402789408],[137.0591805578365,35.191102224488134],[137.0670544488038,35.195892504735355],[137.07218111506643,35.19137694578944],[137.0815661089888,35.188741945684285],[137.09567027196556,35.179387505329146],[137.10612472077935,35.179345559150306],[137.1091850057835,35.18571833323455],[137.12119693918748,35.185294170689474],[137.12938389135354,35.18847472113151],[137.16079027215335,35.2066472245898],[137.1683677825472,35.20541972104337],[137.1726661093535,35.21109444135544],[137.17339360603012,35.217878613007656],[137.18096114114383,35.22852722455184],[137.17754561583752,35.23628697266571],[137.18415202299752,35.249990306007874],[137.18948814496196,35.252569198309914],[137.17636897524812,35.26039641356368],[137.1766412189172,35.27011641394142],[137.16545538295964,35.2822572516709],[137.15254983101,35.279313640212365],[137.14582983138166,35.27979946747149],[137.13159428015194,35.29362780208146],[137.11894569418848,35.29790141371933],[137.10102708193438,35.30161610749741],[137.09627927396934,35.29070110776996],[137.08179036303488,35.278935558928936],[137.0806653309403,35.27447527861125],[137.06840194619292,35.26303555864416],[137.05571055789596,35.26532250492971],[137.05034111515045,35.26022889234957],[137.05496500642994,35.2504197205937],[137.0598769388697,35.24628110798682]]]},"properties":{"N03_001":"愛知県","N03_002":null,"N03_003":null,"N03_004":"瀬戸市","N03_007":"23204"}}]}