{"type":"FeatureCollection","features":[{"type":"Feature","geometry":{"type":"Polygon","coordinates":[[[136.895633061117,35.14276527879463],[136.8862800003218,35.14055722463627],[136.8825578340768,35.11844077492185],[136.88949111512295,35.11845444101971],[136.88949221769178,35.11308722499547],[136.90105167339607,35.1119550001232],[136.90466055833815,35.11811333266422],[136.91154527869173,35.11611027896623],[136.91531389132308,35.12002917100949],[136.91705055773707,35.13103222515713],[136.91467778195408,35.13735805373125],[136.91215500644842,35.143290838101734],[136.895633061117,35.14276527879463]]]},"properties":{"N03_001":"愛知県","N03_002":null,"N03_003":"名古屋市","N03_004":"熱田区","N03_007":"23109"}}]}