{"type":"FeatureCollection","features":[{"type":"Feature","geometry":{"type":"Polygon","coordinates":[[[137.0463113357996,35.33954133296618],[137.04664247696883,35.348514360049705],[137.04984975436275,35.35960046748761],[137.0450900519644,35.36741322524023],[137.03398172497668,35.36804597294332],[137.02828147920695,35.375324278892435],[137.01611955957003,35.37766619803665],[137.01417236096574,35.38177091879294],[137.0021237478128,35.38148061313984],[136.9992451879151,35.390048359844],[136.9914919463963,35.39306802696791],[136.98731275008345,35.40198386526322],[136.9815735798569,35.401577198129246],[136.97857669345967,35.406420224513795],[136.98459474704998,35.411889386785845],[136.9857245275649,35.42451935948088],[136.97441622642782,35.42161738663316],[136.96437260681046,35.42093902711446],[136.96112147937288,35.41489263948375],[136.96309224381207,35.40655269375185],[136.96171302193852,35.399771332481066],[136.9351201167001,35.38824613465147],[136.92145002589803,35.37902953158766],[136.9168749678056,35.371474278515166],[136.92104077770978,35.36787013479892],[136.9306369135628,35.36778455891033],[136.9352374971129,35.37021733296359],[136.93984683556312,35.36134017091223],[136.94157031072132,35.35232080176365],[136.9355797278223,35.34595055927093],[136.9366485864632,35.34253658619457],[136.93115583677252,35.32864166667963],[136.9250438912626,35.32487694631408],[136.92175306145464,35.31928583777125],[136.92698083040102,35.321365837463475],[136.95033138828296,35.32290444078734],[136.94732138797178,35.313375279245804],[136.96477500576202,35.316644440788366],[136.96936833987706,35.32227638664597],[136.97888888501404,35.324719720538724],[136.98526888515096,35.32128417092781],[136.98915639445215,35.33061250486327],[137.0007513877664,35.33216805411246],[137.01215805405104,35.33169277500161],[137.01287972851674,35.33483472114551],[137.03244855985326,35.33377436019862],[137.046229105389,35.339442440816015],[137.0463113357996,35.33954133296618]]]},"properties":{"N03_001":"愛知県","N03_002":null,"N03_003":null,"N03_004":"犬山市","N03_007":"23215"}}]}