{"type":"FeatureCollection","features":[{"type":"Feature","geometry":{"type":"Polygon","coordinates":[[[136.91467778195408,35.13735805373125],[136.91705055773707,35.13103222515713],[136.91531389132308,35.12002917100949],[136.91154527869173,35.11611027896623],[136.92302496812783,35.10918017072834],[136.9298811152214,35.11555277484075],[136.93904306108846,35.11749610815889],[136.94956778202754,35.111153332760125],[136.96218944228895,35.11669444079587],[136.95865221802546,35.13106277512702],[136.96075000001258,35.1356075053821],[136.95193360605117,35.1381355590089],[136.93734693881026,35.13777750472809],[136.93693555113487,35.14055889197931],[136.91907778161442,35.139268279407645],[136.91467778195408,35.13735805373125]]]},"properties":{"N03_001":"愛知県","N03_002":null,"N03_003":"名古屋市","N03_004":"瑞穂区","N03_007":"23108"}}]}