{"type":"FeatureCollection","features":[{"type":"Feature","geometry":{"type":"Polygon","coordinates":[[[137.30709348897335,34.67995593721679],[137.2865347468811,34.68497305346369],[137.29113693931833,34.6911821977003],[137.30088399490046,34.693776972929015],[137.3009296894537,34.72807182865205],[137.28482700446273,34.730946775073676],[137.26173061027953,34.715907559086645],[137.26690547300927,34.70861544134959],[137.26171422822915,34.69883086515233],[137.25798824885862,34.69679925168418],[137.25217316505962,34.70521138689605],[137.24547569434787,34.70620846794651],[137.23266924768768,34.69914438680405],[137.2395496369063,34.690634828934265],[137.23301894906535,34.68870380193897],[137.2294773280163,34.67911386511281],[137.2235852271766,34.675632999563334],[137.2118603115042,34.67915474829306],[137.20634408591093,34.677909413888415],[137.19784130982862,34.66888230607361],[137.18610438371036,34.66906074775534],[137.17503830147655,34.659169332998374],[137.16984050603457,34.65651944101944],[137.1433385861069,34.654017251894686],[137.13152544694185,34.656351413487016],[137.14024474739722,34.64664013473447],[137.13655802883,34.64121199953422],[137.11941204932668,34.63463902646993],[137.102004967855,34.638194972819804],[137.10192216637495,34.64563730611684],[137.0894170303717,34.6497289732136],[137.0902198048002,34.656063531506845],[137.0815701694279,34.661810414319234],[137.0683208947935,34.661230134862876],[137.0596205583422,34.65322772088268],[137.04204516245431,34.62030522520604],[137.03024888557763,34.601061693942086],[137.0272563294161,34.5904981079014],[137.01806286590863,34.57841544101984],[137.03119452720568,34.58089182859504],[137.03881836617472,34.57885041431524],[137.06839185490026,34.585895802149594],[137.09469143995807,34.59077361251224],[137.1172641121491,34.58714227869325],[137.14292963739297,34.59015389148897],[137.16404425403914,34.59668155850716],[137.17958814527674,34.602828531711395],[137.1927334501886,34.60524769362621],[137.20680321679504,34.610549305905806],[137.2219738911822,34.613245414044684],[137.2405830613593,34.62013272084846],[137.27435355387342,34.63023689181915],[137.30887072650285,34.63972725211107],[137.3413590663679,34.64752684648681],[137.33908250275533,34.66093222454259],[137.32388527948217,34.66056249526298],[137.30655639406245,34.66460777532865],[137.31068693885118,34.67403777492342],[137.30709348897335,34.67995593721679]]]},"properties":{"N03_001":"愛知県","N03_002":null,"N03_003":null,"N03_004":"田原市","N03_007":"23231"}}]}