{"type":"FeatureCollection","features":[{"type":"Feature","geometry":{"type":"Polygon","coordinates":[[[137.03655749753057,34.89016222490682],[137.02813500572597,34.89069805357235],[137.02222027254766,34.89451555874609],[137.01634250330392,34.89432833248662],[137.01331972812307,34.90492361333412],[137.01882360602463,34.911226946266595],[137.03486167292795,34.92119694558261],[137.03181666740534,34.9371858285632],[137.0242122178197,34.931734721080545],[137.00159416314023,34.914661666702614],[136.9965783401184,34.914601386944526],[136.98313749729778,34.90752916154162],[136.9776160052745,34.90733615264139],[136.9773515560296,34.89460853155856],[136.96860455285787,34.871725613046635],[136.95528963670745,34.854840613203805],[136.95421766551294,34.84833213502009],[136.95674352839114,34.83329002681336],[136.96441808013037,34.822757387343586],[136.9707428663902,34.820680305951385],[136.99958389148344,34.86583861316154],[137.00711055780607,34.87211833259505],[137.02079167339707,34.87791277515453],[137.03269360622505,34.88580694583396],[137.03655749753057,34.89016222490682]]]},"properties":{"N03_001":"愛知県","N03_002":null,"N03_003":null,"N03_004":"碧南市","N03_007":"23209"}}]}