{"type":"FeatureCollection","features":[{"type":"Feature","geometry":{"type":"Polygon","coordinates":[[[136.90579055828766,35.06840722491353],[136.9130472238504,35.068477224544324],[136.91777444903164,35.062916666870706],[136.92442389144946,35.064417504963956],[136.92575693943127,35.05860417124558],[136.93127416327206,35.05074277455947],[136.9411174975745,35.0521563865081],[136.94633500615566,35.0441930534667],[136.95320306117242,35.04477277534335],[136.96189333331074,35.039563332781654],[136.97225277594487,35.043064441171055],[136.97387693896962,35.049006386935275],[136.97240333324726,35.05643305404226],[136.97603861239213,35.06233805385813],[136.98426527951915,35.061275837609855],[136.98766027240367,35.07255472102361],[136.9981241631997,35.07415222454557],[137.00473917057627,35.072007774938925],[137.00955778216598,35.075315837555934],[137.01748444894827,35.09209944063673],[137.02148055858095,35.09122361247978],[137.02000999976178,35.096100558593946],[137.02344444950177,35.10273305418713],[137.02111306141876,35.109801107635064],[137.0199697281205,35.109570838023785],[137.00184389138258,35.10135083757115],[136.99070944178732,35.10912277509607],[136.98436167335262,35.104362224636986],[136.94822527947315,35.09941805419987],[136.94189277613077,35.09069389200954],[136.940801946153,35.07879833267697],[136.93110610876,35.070990837756995],[136.90579055828766,35.06840722491353]]]},"properties":{"N03_001":"愛知県","N03_002":null,"N03_003":"名古屋市","N03_004":"緑区","N03_007":"23114"}}]}