{"type":"FeatureCollection","features":[{"type":"Feature","geometry":{"type":"Polygon","coordinates":[[[136.80090999979677,35.148040279235545],[136.78665416345893,35.14992527892855],[136.78453944184184,35.15737750476808],[136.7821811154662,35.14973889173649],[136.77089138802717,35.14758444076938],[136.77093221814744,35.13685917101401],[136.77344138780984,35.127549999832695],[136.76990666725897,35.118303891811195],[136.77380749731822,35.114582775075064],[136.78517778242883,35.11112610758386],[136.7961825030202,35.09755889202927],[136.79794416339246,35.0969361079151],[136.79808778242523,35.10185333286506],[136.79196917024103,35.11225999979922],[136.7941966668427,35.12198277458543],[136.797572775763,35.12191750448932],[136.80013027229427,35.132475558800024],[136.80090999979677,35.148040279235545]]]},"properties":{"N03_001":"愛知県","N03_002":null,"N03_003":"海部郡","N03_004":"蟹江町","N03_007":"23425"}}]}