{"type":"FeatureCollection","features":[{"type":"Feature","geometry":{"type":"Polygon","coordinates":[[[136.8992302719596,35.234786387281986],[136.87479250297167,35.225065278939496],[136.87096555131916,35.23095361251927],[136.85786666671333,35.23056083811224],[136.85636527913437,35.221095559012895],[136.86035722400675,35.21522694576697],[136.8785416731597,35.2093363872645],[136.8789713881191,35.20721277494965],[136.8698408303901,35.19400166664366],[136.8659297282744,35.19166110817366],[136.87775389132912,35.17839027858855],[136.89312194622096,35.1737900268883],[136.89404416320758,35.17983666722847],[136.89904111485566,35.187267504491786],[136.90047583748992,35.21647999995207],[136.90747138849383,35.22256917103044],[136.90401639374159,35.23330666706909],[136.8992302719596,35.234786387281986]]]},"properties":{"N03_001":"愛知県","N03_002":null,"N03_003":"名古屋市","N03_004":"西区","N03_007":"23104"}}]}