{"type":"FeatureCollection","features":[{"type":"Feature","geometry":{"type":"Polygon","coordinates":[[[137.44634666756474,35.071935278790136],[137.45133333276715,35.06670833272341],[137.44888916969944,35.05856917053086],[137.45198389154348,35.05428083789042],[137.45852722385234,35.05597194554889],[137.4626483401488,35.05315083794085],[137.47099360626999,35.053856667251466],[137.47584472115705,35.06163166696791],[137.488437782078,35.06418555901638],[137.49146444952476,35.06883417086033],[137.50227221768876,35.06541694583541],[137.50991583724613,35.04939638693378],[137.50516666680824,35.04163917131075],[137.51157306114794,35.03968361260871],[137.51736389113069,35.04733610757535],[137.52335221853014,35.048103613291175],[137.525356394582,35.04285805395608],[137.5311686122417,35.04251944121927],[137.53456194587716,35.05163722497798],[137.54292167309677,35.05731527907693],[137.55925306107997,35.055094999534674],[137.57005778234088,35.060428892079756],[137.57967888517248,35.05963138677913],[137.59027138801423,35.03770417061105],[137.58972333306542,35.034176945909394],[137.59920666695416,35.02539999981019],[137.59967138802415,35.018740837519715],[137.60389138837695,35.01635833287082],[137.619985006403,35.01926805427735],[137.62454167335966,35.03352555885749],[137.62291083017078,35.040283892087984],[137.625718612524,35.04681083784993],[137.63133861178756,35.04881250479332],[137.62838805396564,35.05428499995281],[137.6378113877854,35.06429444083585],[137.63419749721675,35.072487774591195],[137.63328583737155,35.08394222455405],[137.6253411149006,35.08936361304035],[137.62106250303214,35.09805805353642],[137.60959416304024,35.097866667013136],[137.60633250274282,35.10344194568927],[137.6061413878149,35.111153892138475],[137.6102186117996,35.119346946204644],[137.6103341629913,35.1400072253532],[137.62142333352006,35.13801583766082],[137.6309308303936,35.142647504478816],[137.63745972768436,35.14233138648433],[137.6503977820321,35.146339171115926],[137.6553511147622,35.13941555868115],[137.67056833985703,35.14154333305845],[137.67741333355855,35.145019720883454],[137.67695888544426,35.15834472113204],[137.66699250320153,35.17578638693226],[137.6634115305178,35.187123864774605],[137.65974411230104,35.18947689234477],[137.65494141421493,35.19900686507481],[137.6569070039551,35.203714891529046],[137.65698758770702,35.21523517096642],[137.65350980503354,35.21754905374587],[137.6453861615422,35.21402238662387],[137.64461669350567,35.20900655910549],[137.63298474704845,35.212198504857156],[137.6268036454719,35.2118846126848],[137.6030844231077,35.20607350478849],[137.5914838387082,35.19933905395425],[137.57865522735688,35.19846905430347],[137.5810893387021,35.190209640162834],[137.5751975625176,35.185549694163115],[137.56663649777624,35.188074108233536],[137.55077319073018,35.1890507476939],[137.54627422787337,35.187340251551404],[137.53771389158294,35.19032722472167],[137.51890639391502,35.17806972064113],[137.51251167277553,35.18525638657303],[137.49996888485623,35.184731946022566],[137.5025491702081,35.19553972048175],[137.49543083026867,35.197287775010864],[137.48695639452205,35.193712504928214],[137.48236055849304,35.18557722510889],[137.48318027255164,35.17953250482128],[137.4744708304645,35.16991277525443],[137.46218639438666,35.160151666866],[137.4747763940154,35.15009777519225],[137.46818138846038,35.141031666478284],[137.45733000047915,35.13344917114239],[137.44457749695403,35.13045638655302],[137.4484080539886,35.12570250456696],[137.44773610933407,35.119654440600016],[137.4424963937936,35.110098053882155],[137.4334705585195,35.10819194620143],[137.42939834016136,35.10435833327051],[137.43003221831225,35.095837774893425],[137.43460666756368,35.091420838301076],[137.43363360650585,35.08701055849053],[137.44276888477623,35.08116638701921],[137.44634666756474,35.071935278790136]]]},"properties":{"N03_001":"愛知県","N03_002":null,"N03_003":"北設楽郡","N03_004":"設楽町","N03_007":"23561"}}]}