{"type":"FeatureCollection","features":[{"type":"Feature","geometry":{"type":"Polygon","coordinates":[[[136.92680111527932,35.24256917063076],[136.93151138823998,35.2465802791566],[136.93080749696844,35.257318053985045],[136.9236894421141,35.263357505144825],[136.91718360613856,35.265246107521875],[136.9086122180795,35.26163389149093],[136.90232917025503,35.25549472080479],[136.90479416341998,35.24856333283162],[136.90304416275796,35.240398333116616],[136.9108169393503,35.23642917076967],[136.92040666663445,35.23832610806346],[136.92680111527932,35.24256917063076]]]},"properties":{"N03_001":"愛知県","N03_002":null,"N03_003":"西春日井郡","N03_004":"豊山町","N03_007":"23342"}}]}