{"type":"FeatureCollection","features":[{"type":"Feature","geometry":{"type":"MultiPolygon","coordinates":[[[[137.31880941592192,34.74849169383663],[137.31429949392657,34.74856953195837],[137.30805875470787,34.73505122513399],[137.3186878860372,34.733119198092595],[137.31880941592192,34.74849169383663]]],[[[137.49887778238383,34.82680000002006],[137.48884250307913,34.83266027924856],[137.4872341627265,34.84312166723123],[137.4791866675307,34.848594161491405],[137.4816094420222,34.855701386709654],[137.47199916972602,34.86131166699988],[137.46132444906414,34.858732225212066],[137.46058917055382,34.8530558285637],[137.45581610872648,34.84760582904585],[137.4460611148287,34.844256108032994],[137.43833583682942,34.847439720666614],[137.43549055814276,34.84382582919869],[137.42587999986222,34.842917774735554],[137.4231033331523,34.83847527851134],[137.43060527891055,34.824863332476866],[137.43727639409042,34.82766805353788],[137.43891778183024,34.81605610800301],[137.43307360586232,34.81561944128424],[137.43147250325353,34.80976861303111],[137.42073861169763,34.81077861284274],[137.4049019461679,34.80440194559338],[137.40237944225748,34.7975436131473],[137.39809082992792,34.79639361317476],[137.3865800005666,34.80075416227481],[137.37658333275465,34.79218222472991],[137.36326861175712,34.79086222501172],[137.34894944246287,34.78418722476067],[137.3493497280076,34.792742224474125],[137.3391544494184,34.78639527891903],[137.33062167285198,34.78963277533239],[137.3292197278082,34.79660361296641],[137.32013167293837,34.78854222504373],[137.30645407279724,34.78448255852334],[137.30854360620253,34.77880564026816],[137.31927630435803,34.780515639984856],[137.3256010888192,34.78552566687608],[137.33103955902845,34.780511945569856],[137.32568719800588,34.770953531780094],[137.32113649805103,34.771255999864536],[137.32031422811917,34.7328344412565],[137.33883202357913,34.72854677501368],[137.33835108953122,34.724880107730826],[137.3085654219567,34.72462022524326],[137.30848374822642,34.70210974746692],[137.31145549947178,34.69626577474577],[137.30823846982958,34.69205819762777],[137.31582878117342,34.68851282910384],[137.30709348897335,34.67995593721679],[137.31068693885118,34.67403777492342],[137.30655639406245,34.66460777532865],[137.32388527948217,34.66056249526298],[137.33908250275533,34.66093222454259],[137.3413590663679,34.64752684648681],[137.38572610957237,34.65696927920891],[137.4353729699866,34.666680693759076],[137.48496389077104,34.67410510806434],[137.4846386122822,34.683808613077076],[137.48806639444865,34.68732666649254],[137.49179000050822,34.702459721339096],[137.48731389122315,34.71710194599808],[137.48262472085423,34.71992638649357],[137.48143639447414,34.73095222496528],[137.47860693935888,34.73410082879025],[137.4805602722388,34.74056527886461],[137.47410693868437,34.749940559209506],[137.47744221838377,34.756665278479886],[137.476717497015,34.77478555920624],[137.48202917001026,34.782284162184396],[137.4929422182089,34.78686610818437],[137.49165167308627,34.79584694587987],[137.49436055789351,34.80176582853022],[137.48701389087842,34.81174944088406],[137.50165778198107,34.82335055858147],[137.49887778238383,34.82680000002006]]]]},"properties":{"N03_001":"愛知県","N03_002":null,"N03_003":null,"N03_004":"豊橋市","N03_007":"23201"}}]}