{"type":"FeatureCollection","features":[{"type":"Feature","geometry":{"type":"Polygon","coordinates":[[[137.6553511147622,35.13941555868115],[137.65974055818026,35.129417225324744],[137.67058000046666,35.129031945867666],[137.6821213878918,35.132659440480836],[137.68905861246503,35.132924441010175],[137.6941888850091,35.124074720871704],[137.71168888533384,35.12556666646856],[137.7156788849726,35.13098389199308],[137.73982333288052,35.122606386975235],[137.7455219463808,35.122955558652166],[137.7478405577956,35.11488694557613],[137.76160888514198,35.11205889160459],[137.77416610897876,35.1004733330779],[137.7782683404116,35.09962305376098],[137.78175500568898,35.09663805370326],[137.79296778173784,35.095551667275686],[137.79519027181368,35.10307861328744],[137.8013238909848,35.106592504640446],[137.79731083003082,35.12710194589812],[137.79200306099256,35.12905250526893],[137.79313693881875,35.135217504484274],[137.7987344487359,35.13545944100048],[137.80586167307786,35.13112444074039],[137.81485778216097,35.14047277469882],[137.81356972816047,35.151012224734416],[137.82186082991348,35.14800750524222],[137.82896333279166,35.15191250455848],[137.82129082970812,35.15844027859606],[137.82547194607355,35.168200279019686],[137.8181441630228,35.17467972079254],[137.81044194633887,35.1748138915479],[137.8031997283848,35.18311805415493],[137.80740019546272,35.187825252333596],[137.8138143059855,35.186280531821126],[137.8203448121634,35.19730491878704],[137.8216584437822,35.20318908131111],[137.82891428017,35.2043310269554],[137.82674822345177,35.215948532099105],[137.82151936452715,35.21564853175437],[137.80677630428306,35.20980630551662],[137.80042464358246,35.20565102667359],[137.78349243832542,35.2059760272719],[137.77909518789272,35.20275158631671],[137.76771997449725,35.206894891586046],[137.7680214137573,35.21846183774369],[137.76037977990302,35.220765441272135],[137.74331306124884,35.218871837765164],[137.73551946804912,35.22269738647526],[137.72241997370293,35.22210017098615],[137.7221547474437,35.230522946077144],[137.71177386497197,35.22887433318397],[137.70576108950274,35.23384905359103],[137.69981994773252,35.231614053945464],[137.69406243853075,35.23370905432944],[137.68722352784357,35.23072599950535],[137.68126075198222,35.23508850463082],[137.66787847031526,35.22729710757551],[137.65391508451364,35.226712666956075],[137.65350980503354,35.21754905374587],[137.65698758770702,35.21523517096642],[137.6569070039551,35.203714891529046],[137.65494141421493,35.19900686507481],[137.65974411230104,35.18947689234477],[137.6634115305178,35.187123864774605],[137.66699250320153,35.17578638693226],[137.67695888544426,35.15834472113204],[137.67741333355855,35.145019720883454],[137.67056833985703,35.14154333305845],[137.6553511147622,35.13941555868115]]]},"properties":{"N03_001":"愛知県","N03_002":null,"N03_003":"北設楽郡","N03_004":"豊根村","N03_007":"23563"}}]}