{"type":"FeatureCollection","features":[{"type":"Feature","geometry":{"type":"Polygon","coordinates":[[[136.97387693896962,35.049006386935275],[136.98449639449302,35.042773891801744],[136.98738360586879,35.03799944052179],[136.99703999989617,35.038949720853],[137.00165027184266,35.02704138665075],[137.00534778227438,35.033528612955195],[137.0172080540085,35.0397441711566],[137.02533749722772,35.04948083777049],[137.03386527895952,35.05317917108192],[137.04267416358186,35.062534999990305],[137.04291444894272,35.067873332488375],[137.04069333303096,35.0795499995329],[137.03550306131729,35.083883333349206],[137.02741072592437,35.08525530578777],[137.02148055858095,35.09122361247978],[137.01748444894827,35.09209944063673],[137.00955778216598,35.075315837555934],[137.00473917057627,35.072007774938925],[136.9981241631997,35.07415222454557],[136.98766027240367,35.07255472102361],[136.98426527951915,35.061275837609855],[136.97603861239213,35.06233805385813],[136.97240333324726,35.05643305404226],[136.97387693896962,35.049006386935275]]]},"properties":{"N03_001":"愛知県","N03_002":null,"N03_003":null,"N03_004":"豊明市","N03_007":"23229"}}]}