{"type":"FeatureCollection","features":[{"type":"Feature","geometry":{"type":"Polygon","coordinates":[[[137.38514722406524,34.990747224704705],[137.39350749717335,34.99486110775399],[137.3972455508416,35.00560666711402],[137.4074741628025,35.01241333260924],[137.41639527921882,35.009529721219735],[137.42539194588164,35.01143610769026],[137.42582972775983,35.0236091708266],[137.43547722389485,35.03027833267896],[137.43022555096843,35.037494721204496],[137.43169834010632,35.05206666654345],[137.4398561092721,35.062222224775894],[137.44530972856114,35.063570000055506],[137.44634666756474,35.071935278790136],[137.44276888477623,35.08116638701921],[137.43363360650585,35.08701055849053],[137.43460666756368,35.091420838301076],[137.43003221831225,35.095837774893425],[137.42939834016136,35.10435833327051],[137.4334705585195,35.10819194620143],[137.4424963937936,35.110098053882155],[137.44773610933407,35.119654440600016],[137.4484080539886,35.12570250456696],[137.44457749695403,35.13045638655302],[137.45733000047915,35.13344917114239],[137.46818138846038,35.141031666478284],[137.4747763940154,35.15009777519225],[137.46218639438666,35.160151666866],[137.4744708304645,35.16991277525443],[137.48318027255164,35.17953250482128],[137.48236055849304,35.18557722510889],[137.48695639452205,35.193712504928214],[137.49543083026867,35.197287775010864],[137.5025491702081,35.19553972048175],[137.49996888485623,35.184731946022566],[137.51251167277553,35.18525638657303],[137.51890639391502,35.17806972064113],[137.53771389158294,35.19032722472167],[137.54627422787337,35.187340251551404],[137.55077319073018,35.1890507476939],[137.56663649777624,35.188074108233536],[137.5751975625176,35.185549694163115],[137.5810893387021,35.190209640162834],[137.57865522735688,35.19846905430347],[137.57676771675676,35.202501838289265],[137.57872583672804,35.219435135323295],[137.56852111525734,35.22783513508347],[137.5626311152339,35.235365108213216],[137.55041722377587,35.242905107884496],[137.54599669349273,35.25178566667523],[137.54842197079734,35.25973510788896],[137.55748199739628,35.26455372127725],[137.55589978055048,35.27242317049297],[137.57074619987725,35.28309705388597],[137.56682119334346,35.29000872062602],[137.56233063644981,35.28997872104122],[137.55801313879533,35.284013721156384],[137.55199202301355,35.284227332625335],[137.54342922258058,35.2805534410885],[137.52136588772555,35.28425869378373],[137.51412669329227,35.26995953170706],[137.5048022444281,35.26294483773415],[137.49723503217103,35.26419425146361],[137.49655444952828,35.259018973247066],[137.4842997279502,35.25742869397908],[137.47657944208765,35.25340563975851],[137.4694716341087,35.245475080710435],[137.46214469552137,35.241123441193906],[137.4533655253988,35.2405075863561],[137.45045022010163,35.235092333044804],[137.44205050632593,35.23370313499174],[137.43471355378756,35.22413844123611],[137.42491522695627,35.22688094629871],[137.41680688722818,35.24040174784244],[137.40892771724043,35.23490674804805],[137.40100438424497,35.241588135284246],[137.38819355428916,35.2401198022871],[137.38318577210578,35.24672146822121],[137.3867841124969,35.2518120267037],[137.38512024620252,35.258703946130254],[137.36196910489036,35.26097369378101],[137.35050241245642,35.25717622460314],[137.34409907940903,35.25785789182828],[137.3399501947457,35.26454510757071],[137.3464066147735,35.27123289168463],[137.34462994831358,35.273717613277256],[137.32565466952747,35.28045374764241],[137.32129243779582,35.28426153204413],[137.30379438450336,35.29058655932232],[137.29843380007992,35.28874850513944],[137.2829151878857,35.287704666537195],[137.27425713395962,35.28882636034831],[137.2626637738142,35.285201945913116],[137.25945211402393,35.27871222488932],[137.24994319082566,35.26854694588491],[137.24359070005085,35.268537252092585],[137.22457455337303,35.256492532104744],[137.2213612190451,35.259938639756456],[137.21127594013262,35.259690864841616],[137.1999575881722,35.25146364013494],[137.18948814496196,35.252569198309914],[137.18415202299752,35.249990306007874],[137.17754561583752,35.23628697266571],[137.18096114114383,35.22852722455184],[137.17339360603012,35.217878613007656],[137.1726661093535,35.21109444135544],[137.1683677825472,35.20541972104337],[137.16079027215335,35.2066472245898],[137.12938389135354,35.18847472113151],[137.12119693918748,35.185294170689474],[137.1091850057835,35.18571833323455],[137.10612472077935,35.179345559150306],[137.09567027196556,35.179387505329146],[137.0973794425073,35.173595278699224],[137.09471944214863,35.16026055857799],[137.09612221816587,35.15717499992638],[137.09749416272552,35.14465055907607],[137.10483333299203,35.131706107850675],[137.11483111506402,35.131455838216425],[137.12055444912858,35.125071387334685],[137.13008027238675,35.11961833281987],[137.12087027214545,35.11493833283782],[137.11158138787084,35.09716917082062],[137.11309500622963,35.09449361308981],[137.10498111498657,35.083677504613206],[137.10209027214842,35.07247277479877],[137.10221194592464,35.06421666656598],[137.09584527913637,35.059473892106496],[137.0896591701346,35.061579170842094],[137.08349722411765,35.05849861332041],[137.06838972800358,35.05729194616646],[137.0633919462814,35.05076666684823],[137.05700861235766,35.048747504493804],[137.0495833329046,35.03560166718324],[137.04902333316033,35.028416108316776],[137.03971333280413,35.02181472117252],[137.04792555142308,35.01429750492599],[137.0584727760978,35.012563053542124],[137.06194555134618,35.00959083824665],[137.07280917010723,35.017834999885395],[137.07769389086047,35.008093891519934],[137.08505610895236,35.0098305588333],[137.09437527879618,35.00743194552791],[137.10072221805603,35.0087802792865],[137.11210693908401,35.00206305406675],[137.11636749706236,34.991346945705004],[137.12296082987848,34.99060999985164],[137.1297813881007,34.998988891624094],[137.14086194582217,34.997893612700125],[137.14788221828985,34.992497774852495],[137.16020555094553,34.996538053788186],[137.1661013884684,35.0029511076076],[137.16039500572504,35.01674250526247],[137.15975250307565,35.026223053950844],[137.17050416343648,35.03485889192439],[137.17727527873114,35.03490138668968],[137.18575833987552,35.03132138707241],[137.19276472141485,35.03825805406598],[137.1991130609191,35.034290278473634],[137.20776917051091,35.0330297212447],[137.21246527914934,35.04148555901139],[137.21762834007586,35.03767500020115],[137.22544277596342,35.04012472107905],[137.23702722382734,35.03927417106621],[137.24259277633564,35.02893583821839],[137.25560693940884,35.028171945978556],[137.26151944226854,35.01679999982019],[137.2664905581928,35.0195038915914],[137.27331944233845,35.028429440766104],[137.28237610907024,35.020879440633735],[137.28911082970114,35.01795527881313],[137.296036394564,35.01881333276913],[137.30880693938877,35.01619833268694],[137.31534639382107,35.02040722461379],[137.31955778226586,35.01551917097299],[137.3285522177107,35.017420279322494],[137.3457547214033,35.00930305429256],[137.3475827760244,35.01531110832104],[137.35487167328915,35.01431250471836],[137.37075944189485,35.0154625046909],[137.37656834015684,35.00144027894578],[137.37511472096764,34.9979013873392],[137.38514722406524,34.990747224704705]]]},"properties":{"N03_001":"愛知県","N03_002":null,"N03_003":null,"N03_004":"豊田市","N03_007":"23211"}}]}