{"type":"FeatureCollection","features":[{"type":"Feature","geometry":{"type":"Polygon","coordinates":[[[137.02000749694844,35.190708333123155],[137.02580416353135,35.18511972109832],[137.02684389133253,35.17940250512157],[137.02402000032282,35.173816108126914],[137.02746472121999,35.168729999489926],[137.02288277611933,35.163197224572286],[137.0270200001729,35.15617444119755],[137.0312650061752,35.15476972084599],[137.03613333318685,35.16046417048511],[137.04355250354524,35.16279805418691],[137.04806666674335,35.167788054075515],[137.0597163936967,35.16777333307289],[137.05922055788255,35.16239833251706],[137.07606778170282,35.15815055930091],[137.09612221816587,35.15717499992638],[137.09471944214863,35.16026055857799],[137.0973794425073,35.173595278699224],[137.09567027196556,35.179387505329146],[137.0815661089888,35.188741945684285],[137.07218111506643,35.19137694578944],[137.0670544488038,35.195892504735355],[137.0591805578365,35.191102224488134],[137.04982944227504,35.1947402789408],[137.0435361089044,35.19117472063692],[137.03225778217097,35.19181166727469],[137.02000749694844,35.190708333123155]]]},"properties":{"N03_001":"愛知県","N03_002":null,"N03_003":null,"N03_004":"長久手市","N03_007":"23238"}}]}